[{"OBJECT_NAME": "WORLDVIEW-3 (WV-3)", "NORAD_CAT_ID": 40115, "MEAN_MOTION": 14.84866273, "ECCENTRICITY": 0.0001046, "INCLINATION": 97.8612, "RA_OF_ASC_NODE": 158.9303, "ARG_OF_PERICENTER": 163.4248, "MEAN_ANOMALY": 196.7001, "BSTAR": 0.00013244, "EPOCH": "2026-03-23T22:14:54"}, {"OBJECT_NAME": "WORLDVIEW-2 (WV-2)", "NORAD_CAT_ID": 35946, "MEAN_MOTION": 14.37916335, "ECCENTRICITY": 0.0005529, "INCLINATION": 98.467, "RA_OF_ASC_NODE": 157.5833, "ARG_OF_PERICENTER": 110.9181, "MEAN_ANOMALY": 249.2598, "BSTAR": 7.3348e-05, "EPOCH": "2026-03-23T22:08:03"}, {"OBJECT_NAME": "WORLDVIEW-1 (WV-1)", "NORAD_CAT_ID": 32060, "MEAN_MOTION": 15.23842027, "ECCENTRICITY": 0.0002465, "INCLINATION": 97.3829, "RA_OF_ASC_NODE": 203.8473, "ARG_OF_PERICENTER": 27.3344, "MEAN_ANOMALY": 332.8023, "BSTAR": 0.00033418, "EPOCH": "2026-03-23T21:13:37"}, {"OBJECT_NAME": "PLEIADES NEO 4", "NORAD_CAT_ID": 49070, "MEAN_MOTION": 14.81675608, "ECCENTRICITY": 0.0001306, "INCLINATION": 97.8932, "RA_OF_ASC_NODE": 157.181, "ARG_OF_PERICENTER": 94.4254, "MEAN_ANOMALY": 265.7108, "BSTAR": 8.6816e-05, "EPOCH": "2026-03-22T04:04:49"}, {"OBJECT_NAME": "PLEIADES NEO 3", "NORAD_CAT_ID": 48268, "MEAN_MOTION": 14.81669651, "ECCENTRICITY": 0.0001343, "INCLINATION": 97.8927, "RA_OF_ASC_NODE": 158.949, "ARG_OF_PERICENTER": 91.4181, "MEAN_ANOMALY": 268.7186, "BSTAR": -0.00024907, "EPOCH": "2026-03-23T23:01:53"}, {"OBJECT_NAME": "PLEIADES 1A", "NORAD_CAT_ID": 38012, "MEAN_MOTION": 14.58551306, "ECCENTRICITY": 0.00016, "INCLINATION": 98.2017, "RA_OF_ASC_NODE": 159.1587, "ARG_OF_PERICENTER": 78.3578, "MEAN_ANOMALY": 9.8748, "BSTAR": 8.183600000000001e-05, "EPOCH": "2026-03-23T22:15:22"}, {"OBJECT_NAME": "PLEIADES 1B", "NORAD_CAT_ID": 39019, "MEAN_MOTION": 14.58538759, "ECCENTRICITY": 0.0001481, "INCLINATION": 98.1987, "RA_OF_ASC_NODE": 159.1544, "ARG_OF_PERICENTER": 79.8677, "MEAN_ANOMALY": 280.2689, "BSTAR": 9.6175e-05, "EPOCH": "2026-03-23T22:40:39"}, {"OBJECT_NAME": "NAVSTAR 66 (USA 232)", "NORAD_CAT_ID": 37753, "MEAN_MOTION": 2.00562992, "ECCENTRICITY": 0.014066, "INCLINATION": 56.6025, "RA_OF_ASC_NODE": 335.3388, "ARG_OF_PERICENTER": 61.1241, "MEAN_ANOMALY": 166.3638, "BSTAR": 0.0, "EPOCH": "2026-03-23T22:08:50"}, {"OBJECT_NAME": "NAVSTAR 55 (USA 178)", "NORAD_CAT_ID": 28361, "MEAN_MOTION": 2.00552574, "ECCENTRICITY": 0.0160035, "INCLINATION": 54.8016, "RA_OF_ASC_NODE": 90.3066, "ARG_OF_PERICENTER": 299.1359, "MEAN_ANOMALY": 240.0198, "BSTAR": 0.0, "EPOCH": "2026-03-20T03:21:14"}, {"OBJECT_NAME": "NAVSTAR 52 (USA 168)", "NORAD_CAT_ID": 27704, "MEAN_MOTION": 1.9474293, "ECCENTRICITY": 0.0004456, "INCLINATION": 54.8635, "RA_OF_ASC_NODE": 328.4349, "ARG_OF_PERICENTER": 347.0054, "MEAN_ANOMALY": 191.4599, "BSTAR": 0.0, "EPOCH": "2026-03-22T07:31:16"}, {"OBJECT_NAME": "NAVSTAR 53 (USA 175)", "NORAD_CAT_ID": 28129, "MEAN_MOTION": 1.92678335, "ECCENTRICITY": 0.0003099, "INCLINATION": 54.9773, "RA_OF_ASC_NODE": 26.5196, "ARG_OF_PERICENTER": 317.9046, "MEAN_ANOMALY": 42.0616, "BSTAR": 0.0, "EPOCH": "2026-03-21T08:09:11"}, {"OBJECT_NAME": "NAVSTAR 63 (USA 203)", "NORAD_CAT_ID": 34661, "MEAN_MOTION": 2.00555218, "ECCENTRICITY": 0.0144775, "INCLINATION": 54.5006, "RA_OF_ASC_NODE": 214.1187, "ARG_OF_PERICENTER": 61.5232, "MEAN_ANOMALY": 271.4716, "BSTAR": 0.0, "EPOCH": "2026-03-22T18:12:03"}, {"OBJECT_NAME": "NAVSTAR 46 (USA 145)", "NORAD_CAT_ID": 25933, "MEAN_MOTION": 2.00566586, "ECCENTRICITY": 0.010638, "INCLINATION": 51.5403, "RA_OF_ASC_NODE": 299.2015, "ARG_OF_PERICENTER": 172.1852, "MEAN_ANOMALY": 38.7108, "BSTAR": 0.0, "EPOCH": "2026-03-23T19:59:26"}, {"OBJECT_NAME": "NAVSTAR 49 (USA 154)", "NORAD_CAT_ID": 26605, "MEAN_MOTION": 2.00569544, "ECCENTRICITY": 0.0173718, "INCLINATION": 55.5752, "RA_OF_ASC_NODE": 98.3329, "ARG_OF_PERICENTER": 265.8473, "MEAN_ANOMALY": 65.9305, "BSTAR": 0.0, "EPOCH": "2026-03-23T14:29:29"}, {"OBJECT_NAME": "ICEYE-X2", "NORAD_CAT_ID": 43800, "MEAN_MOTION": 15.16627646, "ECCENTRICITY": 0.0009126, "INCLINATION": 97.4457, "RA_OF_ASC_NODE": 138.3006, "ARG_OF_PERICENTER": 232.3621, "MEAN_ANOMALY": 127.6785, "BSTAR": 0.00031575, "EPOCH": "2026-03-23T22:18:50"}, {"OBJECT_NAME": "ICEYE-X6", "NORAD_CAT_ID": 46497, "MEAN_MOTION": 15.0399879, "ECCENTRICITY": 0.0007849, "INCLINATION": 98.0961, "RA_OF_ASC_NODE": 72.5567, "ARG_OF_PERICENTER": 25.6767, "MEAN_ANOMALY": 334.4846, "BSTAR": 0.00029317, "EPOCH": "2026-03-23T21:57:45"}, {"OBJECT_NAME": "ICEYE-X21", "NORAD_CAT_ID": 55049, "MEAN_MOTION": 15.79237861, "ECCENTRICITY": 0.0002471, "INCLINATION": 97.3343, "RA_OF_ASC_NODE": 162.6877, "ARG_OF_PERICENTER": 14.0044, "MEAN_ANOMALY": 346.1291, "BSTAR": 0.00059244, "EPOCH": "2026-03-23T22:20:31"}]