NAVSTAR 46 (USA 145)    
1 25933U 99055A   26082.83294850 -.00000025  00000+0  00000+0 0  9993
2 25933  51.5403 299.2015 0106380 172.1852  38.7108  2.00566586193866
NAVSTAR 49 (USA 154)    
1 26605U 00071A   26082.60381427  .00000028  00000+0  00000+0 0  9994
2 26605  55.5752  98.3329 0173718 265.8473  65.9305  2.00569544185799
NAVSTAR 52 (USA 168)    
1 27704U 03010A   26081.31338483 -.00000064  00000+0  00000+0 0  9993
2 27704  54.8635 328.4349 0004456 347.0054 191.4599  1.94742930168224
NAVSTAR 53 (USA 175)    
1 28129U 03058A   26080.33971470 -.00000066  00000+0  00000+0 0  9999
2 28129  54.9773  26.5196 0003099 317.9046  42.0616  1.92678335162775
NAVSTAR 55 (USA 178)    
1 28361U 04023A   26079.13975317  .00000041  00000+0  00000+0 0  9992
2 28361  54.8016  90.3066 0160035 299.1359 240.0198  2.00552574159259
WORLDVIEW-1 (WV-1)      
1 32060U 07041A   26082.88445969  .00007988  00000+0  33418-3 0  9997
2 32060  97.3829 203.8473 0002465  27.3344 332.8023 15.23842027 29880
NAVSTAR 63 (USA 203)    
1 34661U 09014A   26081.75837224  .00000035  00000+0  00000+0 0  9995
2 34661  54.5006 214.1187 0144775  61.5232 271.4716  2.00555218124545
WORLDVIEW-2 (WV-2)      
1 35946U 09055A   26082.92226002  .00000178  00000+0  73348-4 0  9991
2 35946  98.4670 157.5833 0005529 110.9181 249.2598 14.37916335863397
NAVSTAR 66 (USA 232)    
1 37753U 11036A   26082.92280531 -.00000075  00000+0  00000+0 0  9995
2 37753  56.6025 335.3388 0140660  61.1241 166.3638  2.00562992107563
PLEIADES 1A             
1 38012U 11076F   26082.92734175  .00000335  00000+0  81836-4 0  9995
2 38012  98.2017 159.1587 0001600  78.3578   9.8748 14.58551306759560
PLEIADES 1B             
1 39019U 12068A   26082.94490584  .00000401  00000+0  96175-4 0  9996
2 39019  98.1987 159.1544 0001481  79.8677 280.2689 14.58538759708424
WORLDVIEW-3 (WV-3)      
1 40115U 14048A   26082.92702408  .00001072  00000+0  13244-3 0  9994
2 40115  97.8612 158.9303 0001046 163.4248 196.7001 14.84866273629251
ICEYE-X2                
1 43800U 18099AU  26082.92975657  .00006113  00000+0  31575-3 0  9994
2 43800  97.4457 138.3006 0009126 232.3621 127.6785 15.16627646399899
ICEYE-X6                
1 46497U 20068M   26082.91510547  .00003986  00000+0  29317-3 0  9996
2 46497  98.0961  72.5567 0007849  25.6767 334.4846 15.03998790300419
PLEIADES NEO 3          
1 48268U 21034A   26082.95964351 -.00002011  00000+0 -24907-3 0  9998
2 48268  97.8927 158.9490 0001343  91.4181 268.7186 14.81669651265034
PLEIADES NEO 4          
1 49070U 21073E   26081.17002000  .00000631  00000+0  86816-4 0  9992
2 49070  97.8932 157.1810 0001306  94.4254 265.7108 14.81675608248482
ICEYE-X21               
1 55049U 23001AS  26082.93092479  .00106829  00000+0  59244-3 0  9992
2 55049  97.3343 162.6877 0002471  14.0044 346.1291 15.79237861180068
